[{"OBJECT_NAME":"SL-8 R/B","OBJECT_ID":"1979-089B","EPOCH":"2026-04-08T05:21:13.412160","MEAN_MOTION":14.42371781,"ECCENTRICITY":0.00163749,"INCLINATION":74.0707,"RA_OF_ASC_NODE":36.3711,"ARG_OF_PERICENTER":204.6618,"MEAN_ANOMALY":155.3757,"EPHEMERIS_TYPE":0,"CLASSIFICATION_TYPE":"U","NORAD_CAT_ID":11574,"ELEMENT_SET_NO":999,"REV_AT_EPOCH":44036,"BSTAR":9.7761853e-5,"MEAN_MOTION_DOT":2.97e-6,"MEAN_MOTION_DDOT":0},{"OBJECT_NAME":"SL-14 R/B","OBJECT_ID":"1980-005B","EPOCH":"2026-04-07T22:07:32.755296","MEAN_MOTION":14.90966688,"ECCENTRICITY":0.00171121,"INCLINATION":82.5108,"RA_OF_ASC_NODE":279.4982,"ARG_OF_PERICENTER":68.1562,"MEAN_ANOMALY":292.1476,"EPHEMERIS_TYPE":0,"CLASSIFICATION_TYPE":"U","NORAD_CAT_ID":11672,"ELEMENT_SET_NO":999,"REV_AT_EPOCH":48084,"BSTAR":5.8229118e-5,"MEAN_MOTION_DOT":6.02e-6,"MEAN_MOTION_DDOT":0},{"OBJECT_NAME":"SL-8 R/B","OBJECT_ID":"1981-003B","EPOCH":"2026-04-08T04:38:42.902304","MEAN_MOTION":15.12369163,"ECCENTRICITY":0.02587847,"INCLINATION":82.9365,"RA_OF_ASC_NODE":262.7116,"ARG_OF_PERICENTER":76.2023,"MEAN_ANOMALY":286.786,"EPHEMERIS_TYPE":0,"CLASSIFICATION_TYPE":"U","NORAD_CAT_ID":12139,"ELEMENT_SET_NO":999,"REV_AT_EPOCH":31913,"BSTAR":0.0005142447,"MEAN_MOTION_DOT":0.00020692,"MEAN_MOTION_DDOT":0},{"OBJECT_NAME":"SL-3 R/B","OBJECT_ID":"1981-046B","EPOCH":"2026-04-08T05:42:56.776896","MEAN_MOTION":15.42777977,"ECCENTRICITY":0.00180405,"INCLINATION":81.2297,"RA_OF_ASC_NODE":254.2352,"ARG_OF_PERICENTER":276.8047,"MEAN_ANOMALY":83.1144,"EPHEMERIS_TYPE":0,"CLASSIFICATION_TYPE":"U","NORAD_CAT_ID":12465,"ELEMENT_SET_NO":999,"REV_AT_EPOCH":44298,"BSTAR":0.00028609761,"MEAN_MOTION_DOT":0.00012621,"MEAN_MOTION_DDOT":0},{"OBJECT_NAME":"SL-3 R/B","OBJECT_ID":"1981-103B","EPOCH":"2026-04-08T04:02:15.602496","MEAN_MOTION":15.21742014,"ECCENTRICITY":0.0013316,"INCLINATION":81.1601,"RA_OF_ASC_NODE":178.8501,"ARG_OF_PERICENTER":182.3797,"MEAN_ANOMALY":177.7374,"EPHEMERIS_TYPE":0,"CLASSIFICATION_TYPE":"U","NORAD_CAT_ID":12904,"ELEMENT_SET_NO":999,"REV_AT_EPOCH":97771,"BSTAR":0.00021884242,"MEAN_MOTION_DOT":4.994e-5,"MEAN_MOTION_DDOT":0},{"OBJECT_NAME":"SL-3 R/B","OBJECT_ID":"1982-013B","EPOCH":"2026-04-08T05:31:56.232480","MEAN_MOTION":15.22289149,"ECCENTRICITY":0.00235617,"INCLINATION":81.1719,"RA_OF_ASC_NODE":126.1384,"ARG_OF_PERICENTER":81.3922,"MEAN_ANOMALY":278.9978,"EPHEMERIS_TYPE":0,"CLASSIFICATION_TYPE":"U","NORAD_CAT_ID":13068,"ELEMENT_SET_NO":999,"REV_AT_EPOCH":40884,"BSTAR":0.00015764849,"MEAN_MOTION_DOT":3.683e-5,"MEAN_MOTION_DDOT":0},{"OBJECT_NAME":"SL-3 R/B","OBJECT_ID":"1982-039B","EPOCH":"2026-04-08T04:59:29.752800","MEAN_MOTION":15.10258112,"ECCENTRICITY":0.00279978,"INCLINATION":81.1542,"RA_OF_ASC_NODE":181.9216,"ARG_OF_PERICENTER":225.5372,"MEAN_ANOMALY":134.3564,"EPHEMERIS_TYPE":0,"CLASSIFICATION_TYPE":"U","NORAD_CAT_ID":13154,"ELEMENT_SET_NO":999,"REV_AT_EPOCH":38609,"BSTAR":0.0001237221,"MEAN_MOTION_DOT":2.065e-5,"MEAN_MOTION_DDOT":0},{"OBJECT_NAME":"SL-3 R/B","OBJECT_ID":"1982-079B","EPOCH":"2026-04-08T06:12:50.193792","MEAN_MOTION":15.25195889,"ECCENTRICITY":0.00253103,"INCLINATION":81.1465,"RA_OF_ASC_NODE":158.1591,"ARG_OF_PERICENTER":67.9804,"MEAN_ANOMALY":292.4115,"EPHEMERIS_TYPE":0,"CLASSIFICATION_TYPE":"U","NORAD_CAT_ID":13403,"ELEMENT_SET_NO":999,"REV_AT_EPOCH":38220,"BSTAR":0.00017411433,"MEAN_MOTION_DOT":4.436e-5,"MEAN_MOTION_DDOT":0},{"OBJECT_NAME":"SL-14 R/B","OBJECT_ID":"1982-092B","EPOCH":"2026-04-08T07:34:59.737152","MEAN_MOTION":14.86694561,"ECCENTRICITY":0.00197803,"INCLINATION":82.5647,"RA_OF_ASC_NODE":113.6809,"ARG_OF_PERICENTER":198.6169,"MEAN_ANOMALY":172.3799,"EPHEMERIS_TYPE":0,"CLASSIFICATION_TYPE":"U","NORAD_CAT_ID":13553,"ELEMENT_SET_NO":999,"REV_AT_EPOCH":33333,"BSTAR":4.379998e-5,"MEAN_MOTION_DOT":4.15e-6,"MEAN_MOTION_DDOT":0},{"OBJECT_NAME":"SL-3 R/B","OBJECT_ID":"1983-010B","EPOCH":"2026-04-08T01:32:45.464640","MEAN_MOTION":15.47372754,"ECCENTRICITY":0.00152231,"INCLINATION":81.1028,"RA_OF_ASC_NODE":326.2077,"ARG_OF_PERICENTER":307.7191,"MEAN_ANOMALY":52.2673,"EPHEMERIS_TYPE":0,"CLASSIFICATION_TYPE":"U","NORAD_CAT_ID":13819,"ELEMENT_SET_NO":999,"REV_AT_EPOCH":36248,"BSTAR":0.00024344526,"MEAN_MOTION_DOT":0.00012537,"MEAN_MOTION_DDOT":0},{"OBJECT_NAME":"SL-3 R/B","OBJECT_ID":"1983-075B","EPOCH":"2026-04-08T06:36:23.412672","MEAN_MOTION":15.39165669,"ECCENTRICITY":0.00230637,"INCLINATION":97.6142,"RA_OF_ASC_NODE":103.9896,"ARG_OF_PERICENTER":121.5895,"MEAN_ANOMALY":238.7605,"EPHEMERIS_TYPE":0,"CLASSIFICATION_TYPE":"U","NORAD_CAT_ID":14208,"ELEMENT_SET_NO":999,"REV_AT_EPOCH":33470,"BSTAR":0.00027802548,"MEAN_MOTION_DOT":0.00010806,"MEAN_MOTION_DDOT":0},{"OBJECT_NAME":"COSMOS 1536","OBJECT_ID":"1984-013A","EPOCH":"2026-04-08T04:48:15.403392","MEAN_MOTION":15.24266941,"ECCENTRICITY":0.0014596,"INCLINATION":82.543,"RA_OF_ASC_NODE":78.4984,"ARG_OF_PERICENTER":170.7544,"MEAN_ANOMALY":189.3965,"EPHEMERIS_TYPE":0,"CLASSIFICATION_TYPE":"U","NORAD_CAT_ID":14699,"ELEMENT_SET_NO":999,"REV_AT_EPOCH":27711,"BSTAR":0.0002649074,"MEAN_MOTION_DOT":6.517e-5,"MEAN_MOTION_DDOT":0},{"OBJECT_NAME":"SL-14 R/B","OBJECT_ID":"1984-027B","EPOCH":"2026-04-08T07:42:41.252256","MEAN_MOTION":14.86011008,"ECCENTRICITY":0.00167914,"INCLINATION":82.5433,"RA_OF_ASC_NODE":217.2224,"ARG_OF_PERICENTER":232.3493,"MEAN_ANOMALY":127.6201,"EPHEMERIS_TYPE":0,"CLASSIFICATION_TYPE":"U","NORAD_CAT_ID":14820,"ELEMENT_SET_NO":999,"REV_AT_EPOCH":25203,"BSTAR":5.9406571e-5,"MEAN_MOTION_DOT":5.44e-6,"MEAN_MOTION_DDOT":0},{"OBJECT_NAME":"SL-8 R/B","OBJECT_ID":"1985-006B","EPOCH":"2026-04-08T07:01:36.859008","MEAN_MOTION":14.37805127,"ECCENTRICITY":0.00173693,"INCLINATION":74.0465,"RA_OF_ASC_NODE":206.675,"ARG_OF_PERICENTER":115.3009,"MEAN_ANOMALY":275.5642,"EPHEMERIS_TYPE":0,"CLASSIFICATION_TYPE":"U","NORAD_CAT_ID":15483,"ELEMENT_SET_NO":999,"REV_AT_EPOCH":15828,"BSTAR":9.3083603e-5,"MEAN_MOTION_DOT":2.55e-6,"MEAN_MOTION_DDOT":0},{"OBJECT_NAME":"SL-12 R/B(2)","OBJECT_ID":"1985-042D","EPOCH":"2026-04-08T05:59:04.132032","MEAN_MOTION":14.21991548,"ECCENTRICITY":0.00329262,"INCLINATION":71.1104,"RA_OF_ASC_NODE":25.2762,"ARG_OF_PERICENTER":79.0798,"MEAN_ANOMALY":33.4953,"EPHEMERIS_TYPE":0,"CLASSIFICATION_TYPE":"U","NORAD_CAT_ID":15772,"ELEMENT_SET_NO":999,"REV_AT_EPOCH":11859,"BSTAR":3.5607975e-5,"MEAN_MOTION_DOT":3.2e-7,"MEAN_MOTION_DDOT":0},{"OBJECT_NAME":"SL-14 R/B","OBJECT_ID":"1985-069B","EPOCH":"2026-04-08T05:30:48.983040","MEAN_MOTION":14.86466583,"ECCENTRICITY":0.00203531,"INCLINATION":82.53,"RA_OF_ASC_NODE":357.1643,"ARG_OF_PERICENTER":94.157,"MEAN_ANOMALY":266.1974,"EPHEMERIS_TYPE":0,"CLASSIFICATION_TYPE":"U","NORAD_CAT_ID":15945,"ELEMENT_SET_NO":999,"REV_AT_EPOCH":17722,"BSTAR":4.8646482e-5,"MEAN_MOTION_DOT":4.56e-6,"MEAN_MOTION_DDOT":0},{"OBJECT_NAME":"SL-16 R/B","OBJECT_ID":"1985-097B","EPOCH":"2026-04-08T05:02:44.966688","MEAN_MOTION":14.16602438,"ECCENTRICITY":0.00090091,"INCLINATION":71.0012,"RA_OF_ASC_NODE":78.4007,"ARG_OF_PERICENTER":223.9035,"MEAN_ANOMALY":146.3374,"EPHEMERIS_TYPE":0,"CLASSIFICATION_TYPE":"U","NORAD_CAT_ID":16182,"ELEMENT_SET_NO":999,"REV_AT_EPOCH":9141,"BSTAR":4.095485e-5,"MEAN_MOTION_DOT":3.4e-7,"MEAN_MOTION_DDOT":0}]
