SL-8 R/B                
1 11574U 79089B   26098.22307190  .00000297  00000+0  97762-4 0  9992
2 11574  74.0707  36.3711 0016374 204.6618 155.3757 14.42371781440362
SL-14 R/B               
1 11672U 80005B   26097.92190689  .00000602  00000+0  58229-4 0  9995
2 11672  82.5108 279.4982 0017112  68.1562 292.1476 14.90966688480846
SL-8 R/B                
1 12139U 81003B   26098.19355211  .00020692  00000+0  51424-3 0  9997
2 12139  82.9365 262.7116 0258784  76.2023 286.7860 15.12369163319131
SL-3 R/B                
1 12465U 81046B   26098.23815714  .00012621  00000+0  28610-3 0  9994
2 12465  81.2297 254.2352 0018040 276.8047  83.1144 15.42777977442983
SL-3 R/B                
1 12904U 81103B   26098.16823614  .00004994  00000+0  21884-3 0  9996
2 12904  81.1601 178.8501 0013316 182.3797 177.7374 15.21742014977710
SL-3 R/B                
1 13068U 82013B   26098.23051195  .00003683  00000+0  15765-3 0  9999
2 13068  81.1719 126.1384 0023561  81.3922 278.9978 15.22289149408841
SL-3 R/B                
1 13154U 82039B   26098.20798325  .00002065  00000+0  12372-3 0  9997
2 13154  81.1542 181.9216 0027997 225.5372 134.3564 15.10258112386093
SL-3 R/B                
1 13403U 82079B   26098.25891428  .00004436  00000+0  17411-3 0  9994
2 13403  81.1465 158.1591 0025310  67.9804 292.4115 15.25195889382205
SL-14 R/B               
1 13553U 82092B   26098.31596918  .00000415  00000+0  43800-4 0  9993
2 13553  82.5647 113.6809 0019780 198.6169 172.3799 14.86694561333337
SL-3 R/B                
1 13819U 83010B   26098.06441510  .00012537  00000+0  24345-3 0  9998
2 13819  81.1028 326.2077 0015223 307.7191  52.2673 15.47372754362485
SL-3 R/B                
1 14208U 83075B   26098.27527098  .00010806  00000+0  27803-3 0  9990
2 14208  97.6142 103.9896 0023063 121.5895 238.7605 15.39165669334706
COSMOS 1536             
1 14699U 84013A   26098.20017828  .00006517  00000+0  26491-3 0  9991
2 14699  82.5430  78.4984 0014596 170.7544 189.3965 15.24266941277115
SL-14 R/B               
1 14820U 84027B   26098.32131079  .00000544  00000+0  59407-4 0  9998
2 14820  82.5433 217.2224 0016791 232.3493 127.6201 14.86011008252032
SL-8 R/B                
1 15483U 85006B   26098.29278772  .00000255  00000+0  93084-4 0  9998
2 15483  74.0465 206.6750 0017369 115.3009 275.5642 14.37805127158283
SL-12 R/B(2)            
1 15772U 85042D   26098.24935338  .00000032  00000+0  35608-4 0  9993
2 15772  71.1104  25.2762 0032926  79.0798  33.4953 14.21991548118599
SL-14 R/B               
1 15945U 85069B   26098.22973360  .00000456  00000+0  48646-4 0  9995
2 15945  82.5300 357.1643 0020353  94.1570 266.1974 14.86466583177227
SL-16 R/B               
1 16182U 85097B   26098.21024267  .00000034  00000+0  40955-4 0  9999
2 16182  71.0012  78.4007 0009009 223.9035 146.3374 14.16602438 91417
